     2              NAVIGATION DATA                         RINEX VERSION / TYPE
CCRINEXN V1.6.0 UX  CDDIS               21-SEP-12 15:33     PGM / RUN BY / DATE 
IGS BROADCAST EPHEMERIS FILE                                COMMENT             
    0.1304D-07  0.1490D-07 -0.5960D-07 -0.1192D-06          ION ALPHA           
    0.1024D+06  0.6554D+05 -0.1966D+06 -0.2621D+06          ION BETA            
   -0.186264514923D-08 0.000000000000D+00   589824     1706 DELTA-UTC: A0,A1,T,W
    16                                                      LEAP SECONDS        
                                                            END OF HEADER       
19 12  9 20 17 59 44.0-0.305642839521D-03-0.352429196937D-11 0.000000000000D+00
    0.400000000000D+01-0.209375000000D+01 0.496734976720D-08 0.262802008848D+01
   -0.614672899246D-07 0.858836714178D-02 0.682286918163D-05 0.515361448097D+04
    0.410384000000D+06-0.162050127983D-06 0.208859448250D+01-0.130385160446D-07
    0.960777907342D+00 0.248750000000D+03 0.251403667126D+00-0.808140805165D-08
    0.360729311538D-09 0.000000000000D+00 0.170600000000D+04 0.000000000000D+00
    0.200000000000D+01 0.000000000000D+00-0.149011611938D-07 0.400000000000D+01
    0.409200000000D+06 0.400000000000D+01 0.000000000000D+00 0.000000000000D+00
20 12  9 20 17 59 44.0 0.686259008944D-04 0.795807864051D-12 0.000000000000D+00
    0.900000000000D+01 0.729375000000D+02 0.507914013800D-08-0.919815387740D+00
    0.366009771824D-05 0.502969056833D-02 0.108741223812D-04 0.515363853073D+04
    0.410384000000D+06-0.521540641785D-07-0.223777741593D+01 0.633299350738D-07
    0.929519167667D+00 0.151781250000D+03 0.127230770941D+01-0.832106089130D-08
   -0.329299430929D-09 0.100000000000D+01 0.170600000000D+04 0.000000000000D+00
    0.200000000000D+01 0.000000000000D+00-0.791624188423D-08 0.900000000000D+01
    0.410130000000D+06 0.000000000000D+00 0.000000000000D+00 0.000000000000D+00
26 12  9 20 17 59 44.0-0.274015124887D-03 0.131876731757D-10 0.000000000000D+00
    0.520000000000D+02 0.701875000000D+02 0.407481258944D-08 0.209863187066D+01
    0.328011810780D-05 0.207901682006D-01 0.426732003689D-05 0.515366002846D+04
    0.410384000000D+06 0.819563865662D-07-0.105423368733D+01-0.413507223129D-06
    0.981682673149D+00 0.305125000000D+03 0.120663256673D+01-0.790854370830D-08
    0.145363197818D-09 0.100000000000D+01 0.170600000000D+04 0.000000000000D+00
    0.200000000000D+01 0.000000000000D+00-0.605359673500D-08 0.520000000000D+02
    0.403248000000D+06 0.400000000000D+01 0.000000000000D+00 0.000000000000D+00
27 12  9 20 17 59 44.0 0.433446839452D-03 0.420641299570D-11 0.000000000000D+00
    0.110000000000D+02-0.660000000000D+02 0.399230915284D-08 0.291121214769D+01
   -0.350177288055D-05 0.217680482892D-01 0.390410423279D-05 0.515368468285D+04
    0.410384000000D+06 0.294297933578D-06-0.130684922409D+00 0.273808836937D-06
    0.982217077124D+00 0.310187500000D+03-0.103377851867D+01-0.777068082290D-08
   -0.190365072327D-09 0.100000000000D+01 0.170600000000D+04 0.000000000000D+00
    0.200000000000D+01 0.000000000000D+00-0.419095158577D-08 0.110000000000D+02
    0.403218000000D+06 0.400000000000D+01 0.000000000000D+00 0.000000000000D+00
32 12  9 20 17 59 44.0-0.489972531795D-03-0.397903932026D-11 0.000000000000D+00
    0.100000000000D+01 0.906562500000D+02 0.453983195937D-08 0.122786477457D+01
    0.464171171188D-05 0.118499981472D-01 0.101625919342D-04 0.515358050728D+04
    0.410384000000D+06 0.257045030594D-06-0.210306417889D+01 0.102445483208D-06
    0.950806571402D+00 0.173250000000D+03-0.516355668743D+00-0.797497504686D-08
   -0.260725145963D-09 0.100000000000D+01 0.170600000000D+04 0.000000000000D+00
    0.200000000000D+01 0.000000000000D+00-0.325962901115D-08 0.100000000000D+01
    0.408840000000D+06 0.000000000000D+00 0.000000000000D+00 0.000000000000D+00
 1 12  9 20 18  0  0.0 0.274465885013D-03 0.159161572810D-11 0.000000000000D+00
    0.110000000000D+02-0.214375000000D+02 0.487377444084D-08 0.107450170780D+01
   -0.970438122749D-06 0.120962096844D-02 0.802986323833D-05 0.515363582039D+04
    0.410400000000D+06 0.875443220139D-07 0.304381817559D+01 0.149011611938D-07
    0.960502365259D+00 0.221656250000D+03 0.409745254780D+00-0.814319633967D-08
   -0.458947688442D-09 0.100000000000D+01 0.170600000000D+04 0.000000000000D+00
    0.200000000000D+01 0.000000000000D+00 0.838190317154D-08 0.110000000000D+02
    0.409200000000D+06 0.000000000000D+00 0.000000000000D+00 0.000000000000D+00
 2 12  9 20 18  0  0.0 0.403519254178D-03 0.113686837722D-11 0.000000000000D+00
    0.128000000000D+03-0.316250000000D+02 0.532665023201D-08 0.202948651075D+01
   -0.161491334438D-05 0.114438056480D-01 0.776909291744D-05 0.515375542259D+04
    0.410400000000D+06-0.281259417534D-06 0.302759181156D+01 0.119209289551D-06
    0.939020737206D+00 0.222125000000D+03-0.273908601402D+01-0.839177793921D-08
   -0.434660973880D-09 0.100000000000D+01 0.170600000000D+04 0.000000000000D+00
    0.200000000000D+01 0.000000000000D+00-0.172294676304D-07 0.128000000000D+03
    0.403200000000D+06 0.000000000000D+00 0.000000000000D+00 0.000000000000D+00
 3 12  9 20 18  0  0.0 0.104193575680D-03 0.500222085975D-11 0.000000000000D+00
    0.103000000000D+03 0.103125000000D+01 0.546379901773D-08 0.220053484977D+01
   -0.150874257088D-06 0.158226621570D-01 0.725127756596D-05 0.515373588753D+04
    0.410400000000D+06 0.931322574615D-07 0.186171605766D+01-0.253319740295D-06
    0.931902208553D+00 0.222875000000D+03 0.123647199499D+01-0.825855828782D-08
    0.481448625696D-09 0.000000000000D+00 0.170600000000D+04 0.000000000000D+00
    0.280000000000D+01 0.000000000000D+00-0.465661287308D-08 0.103000000000D+03
    0.403200000000D+06 0.400000000000D+01 0.000000000000D+00 0.000000000000D+00
 4 12  9 20 18  0  0.0 0.310269184411D-03 0.112549969344D-10 0.000000000000D+00
    0.600000000000D+02-0.238437500000D+02 0.537879547699D-08-0.989363515327D+00
   -0.114738941193D-05 0.102664922597D-01 0.751018524170D-05 0.515365115929D+04
    0.410400000000D+06 0.106170773506D-06 0.304433428577D+01 0.206753611565D-06
    0.938081252678D+00 0.221250000000D+03 0.901762640708D+00-0.845320925295D-08
   -0.428589281035D-09 0.100000000000D+01 0.170600000000D+04 0.000000000000D+00
    0.200000000000D+01 0.000000000000D+00-0.651925802231D-08 0.600000000000D+02
    0.408828000000D+06 0.400000000000D+01 0.000000000000D+00 0.000000000000D+00
 5 12  9 20 18  0  0.0-0.353500247002D-03-0.295585778076D-11 0.000000000000D+00
    0.280000000000D+02 0.606562500000D+02 0.456018995022D-08-0.209319359705D+01
    0.317953526974D-05 0.289821787737D-02 0.110287219286D-04 0.515375297356D+04
    0.410400000000D+06-0.633299350738D-07-0.219201617100D+01 0.484287738800D-07
    0.950260842978D+00 0.162625000000D+03 0.207714619325D+00-0.795711716016D-08
   -0.169649923743D-09 0.100000000000D+01 0.170600000000D+04 0.000000000000D+00
    0.200000000000D+01 0.000000000000D+00-0.102445483208D-07 0.280000000000D+02
    0.403218000000D+06 0.400000000000D+01 0.000000000000D+00 0.000000000000D+00
 6 12  9 20 18  0  0.0-0.346372835338D-04-0.875388650456D-11 0.000000000000D+00
    0.940000000000D+02 0.803125000000D+01 0.539951062558D-08-0.220680338060D+01
    0.471249222755D-06 0.732106121723D-02 0.719912350178D-05 0.515367990494D+04
    0.410400000000D+06-0.195577740669D-06 0.193929364812D+01 0.335276126862D-07
    0.938718568551D+00 0.232375000000D+03-0.443296685521D+00-0.840963600938D-08
    0.457519057505D-09 0.000000000000D+00 0.170600000000D+04 0.000000000000D+00
    0.200000000000D+01 0.000000000000D+00-0.512227416039D-08 0.940000000000D+02
    0.403200000000D+06 0.400000000000D+01 0.000000000000D+00 0.000000000000D+00
 8 12  9 20 18  0  0.0 0.220676884055D-05 0.113686837722D-12 0.000000000000D+00
    0.940000000000D+02-0.736562500000D+02 0.375087052453D-08 0.673025263918D-02
   -0.376440584660D-05 0.127259440487D-01 0.504218041897D-05 0.515365050507D+04
    0.410400000000D+06 0.186264514923D-06 0.712744952688D-02 0.135973095894D-06
    0.998500787543D+00 0.301281250000D+03-0.293059996254D+01-0.809855162290D-08
   -0.157863718515D-09 0.100000000000D+01 0.170600000000D+04 0.000000000000D+00
    0.280000000000D+01 0.000000000000D+00-0.419095158577D-08 0.940000000000D+02
    0.403218000000D+06 0.400000000000D+01 0.000000000000D+00 0.000000000000D+00
 9 12  9 20 18  0  0.0 0.186888966709D-03 0.261479726760D-11 0.000000000000D+00
    0.530000000000D+02-0.637812500000D+02 0.405159733672D-08 0.464633870894D-01
   -0.355765223503D-05 0.172976270551D-01 0.504031777382D-05 0.515360796928D+04
    0.410400000000D+06-0.242143869400D-06-0.103541140150D+00-0.894069671631D-07
    0.984808245902D+00 0.297156250000D+03 0.164625779601D+01-0.833070415012D-08
   -0.147863301957D-09 0.100000000000D+01 0.170600000000D+04 0.000000000000D+00
    0.200000000000D+01 0.000000000000D+00-0.558793544769D-08 0.530000000000D+02
    0.403218000000D+06 0.400000000000D+01 0.000000000000D+00 0.000000000000D+00
10 12  9 20 18  0  0.0-0.524464994669D-04-0.136424205266D-11 0.000000000000D+00
    0.910000000000D+02 0.683437500000D+02 0.455518955889D-08-0.184894448293D+01
    0.350736081600D-05 0.116312116152D-01 0.111348927021D-04 0.515372704124D+04
    0.410400000000D+06 0.707805156708D-07-0.217112410918D+01-0.186264514923D-06
    0.945112219832D+00 0.156187500000D+03 0.758218944874D+00-0.786068454772D-08
   -0.161792454434D-09 0.100000000000D+01 0.170600000000D+04 0.000000000000D+00
    0.280000000000D+01 0.000000000000D+00-0.232830643654D-08 0.910000000000D+02
    0.403200000000D+06 0.000000000000D+00 0.000000000000D+00 0.000000000000D+00
